{
  "cdb_doc_categ": {
    "CONTENT": [
      {"PRIMARY_KEYS": {"categ_id": "142"}, "DATA": {"descr": "", "icon_id": "", "item_ref_mandatory": 0, "leaf": "0", "name_cs": "", "name_d": "Allgemeines", "name_es": "", "name_fr": "", "name_i": "", "name_ja": "", "name_ko": "", "name_pl": "", "name_pt": "", "name_tr": "Genel", "name_uk": "General", "name_zh": "\u901a\u7528", "obsolete": 0, "parent_id": "", "tab_name": ""}},
      {"PRIMARY_KEYS": {"categ_id": "143"}, "DATA": {"descr": "", "icon_id": "", "item_ref_mandatory": 0, "leaf": "0", "name_cs": "", "name_d": "Vorschriften / Normen / Richtlinen", "name_es": "", "name_fr": "", "name_i": "", "name_ja": "", "name_ko": "", "name_pl": "", "name_pt": "", "name_tr": "", "name_uk": "Regulations / Standards / Guidelines", "name_zh": "", "obsolete": 0, "parent_id": "", "tab_name": ""}},
      {"PRIMARY_KEYS": {"categ_id": "144"}, "DATA": {"descr": "", "icon_id": "", "item_ref_mandatory": 0, "leaf": "0", "name_cs": "", "name_d": "CAD-Modelle Mechanik", "name_es": "", "name_fr": "", "name_i": "", "name_ja": "", "name_ko": "", "name_pl": "", "name_pt": "", "name_tr": "", "name_uk": "Models", "name_zh": "", "obsolete": 0, "parent_id": "", "tab_name": ""}},
      {"PRIMARY_KEYS": {"categ_id": "145"}, "DATA": {"descr": "", "icon_id": "", "item_ref_mandatory": 0, "leaf": "0", "name_cs": "", "name_d": "Projektdokumentation", "name_es": "", "name_fr": "", "name_i": "", "name_ja": "", "name_ko": "", "name_pl": "", "name_pt": "", "name_tr": "", "name_uk": "Project Documentation", "name_zh": "", "obsolete": 0, "parent_id": "", "tab_name": ""}},
      {"PRIMARY_KEYS": {"categ_id": "146"}, "DATA": {"descr": "", "icon_id": "", "item_ref_mandatory": 0, "leaf": "0", "name_cs": "", "name_d": "Qualit\u00e4t / Sicherheit", "name_es": "", "name_fr": "", "name_i": "", "name_ja": "", "name_ko": "", "name_pl": "", "name_pt": "", "name_tr": "", "name_uk": "Quality / Security", "name_zh": "", "obsolete": 0, "parent_id": "", "tab_name": ""}},
      {"PRIMARY_KEYS": {"categ_id": "147"}, "DATA": {"descr": "", "icon_id": "", "item_ref_mandatory": 0, "leaf": "0", "name_cs": "", "name_d": "Vertragswesen", "name_es": "", "name_fr": "", "name_i": "", "name_ja": "", "name_ko": "", "name_pl": "", "name_pt": "", "name_tr": "", "name_uk": "Contract Management", "name_zh": "", "obsolete": 0, "parent_id": "", "tab_name": ""}},
      {"PRIMARY_KEYS": {"categ_id": "148"}, "DATA": {"descr": "", "icon_id": "", "item_ref_mandatory": 0, "leaf": "0", "name_cs": "", "name_d": "Auftragswesen", "name_es": "", "name_fr": "", "name_i": "", "name_ja": "", "name_ko": "", "name_pl": "", "name_pt": "", "name_tr": "", "name_uk": "Order Management", "name_zh": "", "obsolete": 0, "parent_id": "", "tab_name": ""}},
      {"PRIMARY_KEYS": {"categ_id": "149"}, "DATA": {"descr": "", "icon_id": "", "item_ref_mandatory": 0, "leaf": "0", "name_cs": "", "name_d": "Recht / Wissen / Information", "name_es": "", "name_fr": "", "name_i": "", "name_ja": "", "name_ko": "", "name_pl": "", "name_pt": "", "name_tr": "", "name_uk": "Legislation / Knowledge / Information", "name_zh": "", "obsolete": 0, "parent_id": "", "tab_name": ""}},
      {"PRIMARY_KEYS": {"categ_id": "153"}, "DATA": {"descr": "", "icon_id": "", "item_ref_mandatory": 0, "leaf": "1", "name_cs": "", "name_d": "Besuchsbericht", "name_es": "", "name_fr": "", "name_i": "", "name_ja": "", "name_ko": "", "name_pl": "", "name_pt": "", "name_tr": "Seyahat raporu", "name_uk": "Visit Report", "name_zh": "\u8bbf\u95ee\u62a5\u544a", "obsolete": 0, "parent_id": "142", "tab_name": ""}},
      {"PRIMARY_KEYS": {"categ_id": "154"}, "DATA": {"descr": "", "icon_id": "", "item_ref_mandatory": 0, "leaf": "1", "name_cs": "", "name_d": "Gespr\u00e4chsnotiz", "name_es": "", "name_fr": "", "name_i": "", "name_ja": "", "name_ko": "", "name_pl": "", "name_pt": "", "name_tr": "Toplant\u0131 notlar\u0131", "name_uk": "Meeting Notes", "name_zh": "\u4f1a\u8bae\u8bb0\u5f55", "obsolete": 0, "parent_id": "142", "tab_name": ""}},
      {"PRIMARY_KEYS": {"categ_id": "156"}, "DATA": {"descr": "", "icon_id": "", "item_ref_mandatory": 0, "leaf": "1", "name_cs": "", "name_d": "Pr\u00e4sentation", "name_es": "", "name_fr": "", "name_i": "", "name_ja": "", "name_ko": "", "name_pl": "", "name_pt": "", "name_tr": "Sunum", "name_uk": "Presentation", "name_zh": "\u5c55\u793a", "obsolete": 0, "parent_id": "142", "tab_name": ""}},
      {"PRIMARY_KEYS": {"categ_id": "163"}, "DATA": {"descr": "", "icon_id": "", "item_ref_mandatory": 0, "leaf": "1", "name_cs": "", "name_d": "Normen", "name_es": "", "name_fr": "", "name_i": "", "name_ja": "", "name_ko": "", "name_pl": "", "name_pt": "", "name_tr": "", "name_uk": "Standards", "name_zh": "", "obsolete": 0, "parent_id": "143", "tab_name": ""}},
      {"PRIMARY_KEYS": {"categ_id": "164"}, "DATA": {"descr": "", "icon_id": "", "item_ref_mandatory": 0, "leaf": "1", "name_cs": "", "name_d": "Gesetz", "name_es": "", "name_fr": "", "name_i": "", "name_ja": "", "name_ko": "", "name_pl": "", "name_pt": "", "name_tr": "Kanun", "name_uk": "Law", "name_zh": "\u4f4e", "obsolete": 0, "parent_id": "143", "tab_name": ""}},
      {"PRIMARY_KEYS": {"categ_id": "165"}, "DATA": {"descr": "", "icon_id": "", "item_ref_mandatory": 0, "leaf": "1", "name_cs": "", "name_d": "Anweisung", "name_es": "", "name_fr": "", "name_i": "", "name_ja": "", "name_ko": "", "name_pl": "", "name_pt": "", "name_tr": "", "name_uk": "Instruction", "name_zh": "", "obsolete": 0, "parent_id": "143", "tab_name": ""}},
      {"PRIMARY_KEYS": {"categ_id": "167"}, "DATA": {"descr": "", "icon_id": "", "item_ref_mandatory": 0, "leaf": "0", "name_cs": null, "name_d": "Software", "name_es": null, "name_fr": null, "name_i": null, "name_ja": null, "name_ko": null, "name_pl": null, "name_pt": null, "name_tr": null, "name_uk": "Software", "name_zh": null, "obsolete": 0, "parent_id": "", "tab_name": ""}},
      {"PRIMARY_KEYS": {"categ_id": "168"}, "DATA": {"descr": "", "icon_id": "", "item_ref_mandatory": 0, "leaf": "1", "name_cs": null, "name_d": "Software", "name_es": null, "name_fr": null, "name_i": null, "name_ja": null, "name_ko": null, "name_pl": null, "name_pt": null, "name_tr": null, "name_uk": "Software", "name_zh": null, "obsolete": 0, "parent_id": "167", "tab_name": ""}},
      {"PRIMARY_KEYS": {"categ_id": "170"}, "DATA": {"descr": "", "icon_id": "", "item_ref_mandatory": 0, "leaf": "1", "name_cs": "", "name_d": "St\u00fcckliste", "name_es": "", "name_fr": "", "name_i": "", "name_ja": "", "name_ko": "", "name_pl": "", "name_pt": "", "name_tr": "", "name_uk": "Bill of Material", "name_zh": "", "obsolete": 0, "parent_id": "316", "tab_name": ""}},
      {"PRIMARY_KEYS": {"categ_id": "172"}, "DATA": {"descr": "", "icon_id": "", "item_ref_mandatory": 0, "leaf": "1", "name_cs": "", "name_d": "Anleitung", "name_es": "", "name_fr": "", "name_i": "", "name_ja": "", "name_ko": "", "name_pl": "", "name_pt": "", "name_tr": "", "name_uk": "Manual", "name_zh": "", "obsolete": 0, "parent_id": "316", "tab_name": ""}},
      {"PRIMARY_KEYS": {"categ_id": "177"}, "DATA": {"descr": "", "icon_id": "", "item_ref_mandatory": 0, "leaf": "1", "name_cs": "", "name_d": "2D Zeichnung", "name_es": "", "name_fr": "", "name_i": "", "name_ja": "", "name_ko": "", "name_pl": "", "name_pt": "", "name_tr": "", "name_uk": "2D Drawing", "name_zh": "", "obsolete": 0, "parent_id": "311", "tab_name": ""}},
      {"PRIMARY_KEYS": {"categ_id": "179"}, "DATA": {"descr": "", "icon_id": "", "item_ref_mandatory": 0, "leaf": "1", "name_cs": "", "name_d": "Lastenheft", "name_es": "", "name_fr": "", "name_i": "", "name_ja": "", "name_ko": "", "name_pl": "", "name_pt": "", "name_tr": "", "name_uk": "Requirements Specification", "name_zh": "", "obsolete": 0, "parent_id": "306", "tab_name": ""}},
      {"PRIMARY_KEYS": {"categ_id": "180"}, "DATA": {"descr": "", "icon_id": "", "item_ref_mandatory": 0, "leaf": "1", "name_cs": "", "name_d": "Statusbericht", "name_es": "", "name_fr": "", "name_i": "", "name_ja": "", "name_ko": "", "name_pl": "", "name_pt": "", "name_tr": "Durum raporu", "name_uk": "Status Report", "name_zh": "\u72b6\u6001\u62a5\u544a", "obsolete": 0, "parent_id": "145", "tab_name": ""}},
      {"PRIMARY_KEYS": {"categ_id": "181"}, "DATA": {"descr": "", "icon_id": "", "item_ref_mandatory": 0, "leaf": "1", "name_cs": "", "name_d": "Projektplan", "name_es": "", "name_fr": "", "name_i": "", "name_ja": "", "name_ko": "", "name_pl": "", "name_pt": "", "name_tr": "Proje plan\u0131", "name_uk": "Project Schedule", "name_zh": "\u9879\u76ee\u8ba1\u5212", "obsolete": 0, "parent_id": "145", "tab_name": ""}},
      {"PRIMARY_KEYS": {"categ_id": "182"}, "DATA": {"descr": "", "icon_id": "", "item_ref_mandatory": 0, "leaf": "1", "name_cs": "", "name_d": "Offene Punkte Liste", "name_es": "", "name_fr": "", "name_i": "", "name_ja": "", "name_ko": "", "name_pl": "", "name_pt": "", "name_tr": "A\u00e7\u0131k konular listesi", "name_uk": "Open Issues", "name_zh": "\u95ee\u9898\u6e05\u5355", "obsolete": 0, "parent_id": "145", "tab_name": ""}},
      {"PRIMARY_KEYS": {"categ_id": "183"}, "DATA": {"descr": "", "icon_id": "", "item_ref_mandatory": 0, "leaf": "1", "name_cs": "", "name_d": "Pflichtenheft", "name_es": "", "name_fr": "", "name_i": "", "name_ja": "", "name_ko": "", "name_pl": "", "name_pt": "", "name_tr": "Sistem spesifikasyonu", "name_uk": "System Specification", "name_zh": "\u7cfb\u7edf\u89c4\u8303", "obsolete": 0, "parent_id": "306", "tab_name": ""}},
      {"PRIMARY_KEYS": {"categ_id": "185"}, "DATA": {"descr": "", "icon_id": "", "item_ref_mandatory": 0, "leaf": "1", "name_cs": "", "name_d": "FMEA", "name_es": "", "name_fr": "", "name_i": "", "name_ja": "", "name_ko": "", "name_pl": "", "name_pt": "", "name_tr": "FMEA", "name_uk": "FMEA", "name_zh": "FMEA", "obsolete": 0, "parent_id": "146", "tab_name": ""}},
      {"PRIMARY_KEYS": {"categ_id": "187"}, "DATA": {"descr": "", "icon_id": "", "item_ref_mandatory": 0, "leaf": "1", "name_cs": "", "name_d": "Erstmusterpr\u00fcfbericht", "name_es": "", "name_fr": "", "name_i": "", "name_ja": "", "name_ko": "", "name_pl": "", "name_pt": "", "name_tr": "", "name_uk": "Initial Sample Inspection", "name_zh": "", "obsolete": 0, "parent_id": "146", "tab_name": ""}},
      {"PRIMARY_KEYS": {"categ_id": "190"}, "DATA": {"descr": "", "icon_id": "", "item_ref_mandatory": 0, "leaf": "1", "name_cs": "", "name_d": "\u00c4nderungsantrag", "name_es": "", "name_fr": "", "name_i": "", "name_ja": "", "name_ko": "", "name_pl": "", "name_pt": "", "name_tr": "De\u011fi\u015fiklik talebi", "name_uk": "Change Request", "name_zh": "\u66f4\u6539\u9700\u6c42", "obsolete": 0, "parent_id": "315", "tab_name": ""}},
      {"PRIMARY_KEYS": {"categ_id": "191"}, "DATA": {"descr": "", "icon_id": "", "item_ref_mandatory": 0, "leaf": "1", "name_cs": "", "name_d": "\u00c4nderungsauftrag", "name_es": "", "name_fr": "", "name_i": "", "name_ja": "", "name_ko": "", "name_pl": "", "name_pt": "", "name_tr": "De\u011fi\u015fiklik emri", "name_uk": "Change Order", "name_zh": "\u66f4\u6539\u6307\u4ee4", "obsolete": 0, "parent_id": "315", "tab_name": ""}},
      {"PRIMARY_KEYS": {"categ_id": "192"}, "DATA": {"descr": "", "icon_id": "", "item_ref_mandatory": 0, "leaf": "1", "name_cs": "", "name_d": "\u00c4nderungsmitteilung", "name_es": "", "name_fr": "", "name_i": "", "name_ja": "", "name_ko": "", "name_pl": "", "name_pt": "", "name_tr": "De\u011fi\u015fiklik bildirimi", "name_uk": "Change Notification", "name_zh": "\u66f4\u6539\u901a\u77e5", "obsolete": 0, "parent_id": "315", "tab_name": ""}},
      {"PRIMARY_KEYS": {"categ_id": "193"}, "DATA": {"descr": "", "icon_id": "", "item_ref_mandatory": 0, "leaf": "1", "name_cs": "", "name_d": "Abnahmeprotokoll", "name_es": "", "name_fr": "", "name_i": "", "name_ja": "", "name_ko": "", "name_pl": "", "name_pt": "", "name_tr": "Kabul raporu", "name_uk": "Acceptance Certificate", "name_zh": "\u9a8c\u6536\u62a5\u544a", "obsolete": 0, "parent_id": "148", "tab_name": ""}},
      {"PRIMARY_KEYS": {"categ_id": "194"}, "DATA": {"descr": "", "icon_id": "", "item_ref_mandatory": 0, "leaf": "1", "name_cs": "", "name_d": "Garantie", "name_es": "", "name_fr": "", "name_i": "", "name_ja": "", "name_ko": "", "name_pl": "", "name_pt": "", "name_tr": "Garanti", "name_uk": "Guarantee", "name_zh": "\u4fdd\u8bc1", "obsolete": 0, "parent_id": "147", "tab_name": ""}},
      {"PRIMARY_KEYS": {"categ_id": "195"}, "DATA": {"descr": "", "icon_id": "", "item_ref_mandatory": 0, "leaf": "1", "name_cs": "", "name_d": "Reklamation", "name_es": "", "name_fr": "", "name_i": "", "name_ja": "", "name_ko": "", "name_pl": "", "name_pt": "", "name_tr": "\u015eikayet", "name_uk": "Complaint", "name_zh": "\u6295\u8bc9", "obsolete": 0, "parent_id": "146", "tab_name": ""}},
      {"PRIMARY_KEYS": {"categ_id": "196"}, "DATA": {"descr": "", "icon_id": "", "item_ref_mandatory": 0, "leaf": "1", "name_cs": "", "name_d": "Patent", "name_es": "", "name_fr": "", "name_i": "", "name_ja": "", "name_ko": "", "name_pl": "", "name_pt": "", "name_tr": "Patent", "name_uk": "Patent", "name_zh": "\u4e13\u5229", "obsolete": 0, "parent_id": "149", "tab_name": ""}},
      {"PRIMARY_KEYS": {"categ_id": "197"}, "DATA": {"descr": "", "icon_id": "", "item_ref_mandatory": 0, "leaf": "1", "name_cs": "", "name_d": "Vertrag", "name_es": "", "name_fr": "", "name_i": "", "name_ja": "", "name_ko": "", "name_pl": "", "name_pt": "", "name_tr": "S\u00f6zle\u015fme", "name_uk": "Contract", "name_zh": "\u5408\u540c", "obsolete": 0, "parent_id": "147", "tab_name": ""}},
      {"PRIMARY_KEYS": {"categ_id": "198"}, "DATA": {"descr": "", "icon_id": "", "item_ref_mandatory": 0, "leaf": "1", "name_cs": "", "name_d": "\u00dcbergabeprotokoll", "name_es": "", "name_fr": "", "name_i": "", "name_ja": "", "name_ko": "", "name_pl": "", "name_pt": "", "name_tr": "", "name_uk": "Handover Certificate", "name_zh": "", "obsolete": 0, "parent_id": "148", "tab_name": ""}},
      {"PRIMARY_KEYS": {"categ_id": "199"}, "DATA": {"descr": "", "icon_id": "", "item_ref_mandatory": 0, "leaf": "1", "name_cs": "", "name_d": "Kundenanfrage", "name_es": "", "name_fr": "", "name_i": "", "name_ja": "", "name_ko": "", "name_pl": "", "name_pt": "", "name_tr": "", "name_uk": "Customer Request", "name_zh": "", "obsolete": 0, "parent_id": "301", "tab_name": ""}},
      {"PRIMARY_KEYS": {"categ_id": "200"}, "DATA": {"descr": "", "icon_id": "", "item_ref_mandatory": 0, "leaf": "1", "name_cs": "", "name_d": "Angebot", "name_es": "", "name_fr": "", "name_i": "", "name_ja": "", "name_ko": "", "name_pl": "", "name_pt": "", "name_tr": "Teklif", "name_uk": "Offer", "name_zh": "\u62a5\u4ef7", "obsolete": 0, "parent_id": "301", "tab_name": ""}},
      {"PRIMARY_KEYS": {"categ_id": "201"}, "DATA": {"descr": "", "icon_id": "", "item_ref_mandatory": 0, "leaf": "1", "name_cs": "", "name_d": "Auftrag", "name_es": "", "name_fr": "", "name_i": "", "name_ja": "", "name_ko": "", "name_pl": "", "name_pt": "", "name_tr": "S\u0131ra", "name_uk": "Order", "name_zh": "\u8ba2\u5355", "obsolete": 0, "parent_id": "148", "tab_name": ""}},
      {"PRIMARY_KEYS": {"categ_id": "202"}, "DATA": {"descr": "", "icon_id": "", "item_ref_mandatory": 0, "leaf": "1", "name_cs": "", "name_d": "Auftragsbest\u00e4tigung", "name_es": "", "name_fr": "", "name_i": "", "name_ja": "", "name_ko": "", "name_pl": "", "name_pt": "", "name_tr": "Emir teyidi", "name_uk": "Order Confirmation", "name_zh": "\u6307\u4ee4\u786e\u8ba4", "obsolete": 0, "parent_id": "148", "tab_name": ""}},
      {"PRIMARY_KEYS": {"categ_id": "203"}, "DATA": {"descr": "", "icon_id": "", "item_ref_mandatory": 0, "leaf": "1", "name_cs": "", "name_d": "Lieferschein", "name_es": "", "name_fr": "", "name_i": "", "name_ja": "", "name_ko": "", "name_pl": "", "name_pt": "", "name_tr": "Teslimat notu", "name_uk": "Delivery Receipt", "name_zh": "\u9001\u8d27\u5355", "obsolete": 0, "parent_id": "148", "tab_name": ""}},
      {"PRIMARY_KEYS": {"categ_id": "204"}, "DATA": {"descr": "", "icon_id": "", "item_ref_mandatory": 0, "leaf": "1", "name_cs": "", "name_d": "Rechnung", "name_es": "", "name_fr": "", "name_i": "", "name_ja": "", "name_ko": "", "name_pl": "", "name_pt": "", "name_tr": "Fatura", "name_uk": "Invoice", "name_zh": "\u53d1\u7968", "obsolete": 0, "parent_id": "148", "tab_name": ""}},
      {"PRIMARY_KEYS": {"categ_id": "205"}, "DATA": {"descr": "", "icon_id": "", "item_ref_mandatory": 0, "leaf": "1", "name_cs": "", "name_d": "Kalkulation", "name_es": "", "name_fr": "", "name_i": "", "name_ja": "", "name_ko": "", "name_pl": "", "name_pt": "", "name_tr": "Hesaplama", "name_uk": "Calculation", "name_zh": "\u8ba1\u7b97", "obsolete": 0, "parent_id": "301", "tab_name": ""}},
      {"PRIMARY_KEYS": {"categ_id": "207"}, "DATA": {"descr": "", "icon_id": "", "item_ref_mandatory": 0, "leaf": "1", "name_cs": "", "name_d": "Produktwissen", "name_es": "", "name_fr": "", "name_i": "", "name_ja": "", "name_ko": "", "name_pl": "", "name_pt": "", "name_tr": "\u00dcr\u00fcn bilgisi", "name_uk": "Product Knowledge", "name_zh": "\u4ea7\u54c1\u77e5\u8bc6", "obsolete": 0, "parent_id": "149", "tab_name": ""}},
      {"PRIMARY_KEYS": {"categ_id": "211"}, "DATA": {"descr": "", "icon_id": "", "item_ref_mandatory": 0, "leaf": "1", "name_cs": "", "name_d": "3D-Einzelteil", "name_es": "", "name_fr": "", "name_i": "", "name_ja": "", "name_ko": "", "name_pl": "", "name_pt": "", "name_tr": "", "name_uk": "3D Part", "name_zh": "", "obsolete": 0, "parent_id": "144", "tab_name": ""}},
      {"PRIMARY_KEYS": {"categ_id": "212"}, "DATA": {"descr": "", "icon_id": "", "item_ref_mandatory": 0, "leaf": "1", "name_cs": "", "name_d": "3D-Einzelteil mit 2D-Zeichnung", "name_es": "", "name_fr": "", "name_i": "", "name_ja": "", "name_ko": "", "name_pl": "", "name_pt": "", "name_tr": "", "name_uk": "3D Part with 2D Drawing", "name_zh": "", "obsolete": 0, "parent_id": "144", "tab_name": ""}},
      {"PRIMARY_KEYS": {"categ_id": "213"}, "DATA": {"descr": "", "icon_id": "", "item_ref_mandatory": 0, "leaf": "1", "name_cs": "", "name_d": "3D-Baugruppe", "name_es": "", "name_fr": "", "name_i": "", "name_ja": "", "name_ko": "", "name_pl": "", "name_pt": "", "name_tr": "", "name_uk": "3D Assembly", "name_zh": "", "obsolete": 0, "parent_id": "144", "tab_name": ""}},
      {"PRIMARY_KEYS": {"categ_id": "293"}, "DATA": {"descr": "", "icon_id": "", "item_ref_mandatory": 0, "leaf": "1", "name_cs": "", "name_d": "Foto", "name_es": "", "name_fr": "", "name_i": "", "name_ja": "", "name_ko": "", "name_pl": "", "name_pt": "", "name_tr": "Foto", "name_uk": "Photo", "name_zh": "\u7167\u7247", "obsolete": 0, "parent_id": "142", "tab_name": ""}},
      {"PRIMARY_KEYS": {"categ_id": "296"}, "DATA": {"descr": "", "icon_id": "", "item_ref_mandatory": 0, "leaf": "1", "name_cs": "", "name_d": "3D-Baugruppe mit 2D-Zeichnung", "name_es": "", "name_fr": "", "name_i": "", "name_ja": "", "name_ko": "", "name_pl": "", "name_pt": "", "name_tr": "", "name_uk": "3D Assembly with 2D Drawing", "name_zh": "", "obsolete": 0, "parent_id": "144", "tab_name": ""}},
      {"PRIMARY_KEYS": {"categ_id": "297"}, "DATA": {"descr": "", "icon_id": "", "item_ref_mandatory": 0, "leaf": "1", "name_cs": "", "name_d": "Workspace", "name_es": "", "name_fr": "", "name_i": "", "name_ja": "", "name_ko": "", "name_pl": "", "name_pt": "", "name_tr": "\u00c7al\u0131\u015fma alan\u0131", "name_uk": "Workspace", "name_zh": "\u5de5\u4f5c\u533a", "obsolete": 1, "parent_id": "144", "tab_name": ""}},
      {"PRIMARY_KEYS": {"categ_id": "300"}, "DATA": {"descr": "", "icon_id": "", "item_ref_mandatory": 0, "leaf": "0", "name_cs": "", "name_d": "Korrespondenz", "name_es": "", "name_fr": "", "name_i": "", "name_ja": "", "name_ko": "", "name_pl": "", "name_pt": "", "name_tr": "", "name_uk": "Correspondence", "name_zh": "", "obsolete": 0, "parent_id": "", "tab_name": ""}},
      {"PRIMARY_KEYS": {"categ_id": "301"}, "DATA": {"descr": "", "icon_id": "", "item_ref_mandatory": 0, "leaf": "0", "name_cs": "", "name_d": "Angebotswesen", "name_es": "", "name_fr": "", "name_i": "", "name_ja": "", "name_ko": "", "name_pl": "", "name_pt": "", "name_tr": "", "name_uk": "Offer Management", "name_zh": "", "obsolete": 0, "parent_id": "", "tab_name": ""}},
      {"PRIMARY_KEYS": {"categ_id": "303"}, "DATA": {"descr": "", "icon_id": "", "item_ref_mandatory": 0, "leaf": "0", "name_cs": "", "name_d": "Organisation", "name_es": "", "name_fr": "", "name_i": "", "name_ja": "", "name_ko": "", "name_pl": "", "name_pt": "", "name_tr": "", "name_uk": "Organization", "name_zh": "", "obsolete": 0, "parent_id": "", "tab_name": ""}},
      {"PRIMARY_KEYS": {"categ_id": "305"}, "DATA": {"descr": "", "icon_id": "", "item_ref_mandatory": 0, "leaf": "0", "name_cs": "", "name_d": "Genehmigungs- und Versicherungswesen", "name_es": "", "name_fr": "", "name_i": "", "name_ja": "", "name_ko": "", "name_pl": "", "name_pt": "", "name_tr": "", "name_uk": "Approval & Insurance Management", "name_zh": "", "obsolete": 0, "parent_id": "", "tab_name": ""}},
      {"PRIMARY_KEYS": {"categ_id": "306"}, "DATA": {"descr": "", "icon_id": "", "item_ref_mandatory": 0, "leaf": "0", "name_cs": "", "name_d": "Technische Anforderungen und Auslegung", "name_es": "", "name_fr": "", "name_i": "", "name_ja": "", "name_ko": "", "name_pl": "", "name_pt": "", "name_tr": "", "name_uk": "Technical Requirements & Design", "name_zh": "", "obsolete": 0, "parent_id": "", "tab_name": ""}},
      {"PRIMARY_KEYS": {"categ_id": "307"}, "DATA": {"descr": "", "icon_id": "", "item_ref_mandatory": 0, "leaf": "0", "name_cs": "", "name_d": "Anlagendokumentation", "name_es": "", "name_fr": "", "name_i": "", "name_ja": "", "name_ko": "", "name_pl": "", "name_pt": "", "name_tr": "", "name_uk": "System Documentation", "name_zh": "", "obsolete": 0, "parent_id": "", "tab_name": ""}},
      {"PRIMARY_KEYS": {"categ_id": "309"}, "DATA": {"descr": "", "icon_id": "", "item_ref_mandatory": 0, "leaf": "0", "name_cs": "", "name_d": "Auslegungsberechnungen", "name_es": "", "name_fr": "", "name_i": "", "name_ja": "", "name_ko": "", "name_pl": "", "name_pt": "", "name_tr": "", "name_uk": "Design Calculations", "name_zh": "", "obsolete": 0, "parent_id": "", "tab_name": ""}},
      {"PRIMARY_KEYS": {"categ_id": "310"}, "DATA": {"descr": "", "icon_id": "", "item_ref_mandatory": 0, "leaf": "0", "name_cs": "", "name_d": "Prozess- und Funktionsbeschreibung", "name_es": "", "name_fr": "", "name_i": "", "name_ja": "", "name_ko": "", "name_pl": "", "name_pt": "", "name_tr": "", "name_uk": "Process and Functional Description", "name_zh": "", "obsolete": 0, "parent_id": "", "tab_name": ""}},
      {"PRIMARY_KEYS": {"categ_id": "311"}, "DATA": {"descr": "", "icon_id": "", "item_ref_mandatory": 0, "leaf": "0", "name_cs": "", "name_d": "Zeichnungen / Mechanik", "name_es": "", "name_fr": "", "name_i": "", "name_ja": "", "name_ko": "", "name_pl": "", "name_pt": "", "name_tr": "", "name_uk": "Drawings / Mechanics", "name_zh": "", "obsolete": 0, "parent_id": "", "tab_name": ""}},
      {"PRIMARY_KEYS": {"categ_id": "312"}, "DATA": {"descr": "", "icon_id": "", "item_ref_mandatory": 0, "leaf": "0", "name_cs": "", "name_d": "E-Technik / Elektronik", "name_es": "", "name_fr": "", "name_i": "", "name_ja": "", "name_ko": "", "name_pl": "", "name_pt": "", "name_tr": "", "name_uk": "Electrical / Electronic Engineering", "name_zh": "", "obsolete": 0, "parent_id": "", "tab_name": ""}},
      {"PRIMARY_KEYS": {"categ_id": "315"}, "DATA": {"descr": "", "icon_id": "", "item_ref_mandatory": 0, "leaf": "0", "name_cs": "", "name_d": "Technisches \u00c4nderungsmanagement", "name_es": "", "name_fr": "", "name_i": "", "name_ja": "", "name_ko": "", "name_pl": "", "name_pt": "", "name_tr": "", "name_uk": "Engineering Change Management", "name_zh": "", "obsolete": 0, "parent_id": "", "tab_name": ""}},
      {"PRIMARY_KEYS": {"categ_id": "316"}, "DATA": {"descr": "", "icon_id": "", "item_ref_mandatory": 0, "leaf": "0", "name_cs": "", "name_d": "Produkt- / Technische Dokumentation", "name_es": "", "name_fr": "", "name_i": "", "name_ja": "", "name_ko": "", "name_pl": "", "name_pt": "", "name_tr": "", "name_uk": "Product and Technical Documentation", "name_zh": "", "obsolete": 0, "parent_id": "", "tab_name": ""}},
      {"PRIMARY_KEYS": {"categ_id": "322"}, "DATA": {"descr": "", "icon_id": "", "item_ref_mandatory": 0, "leaf": "1", "name_cs": "", "name_d": "Besprechungsprotokoll", "name_es": "", "name_fr": "", "name_i": "", "name_ja": "", "name_ko": "", "name_pl": "", "name_pt": "", "name_tr": "", "name_uk": "Minutes of Meeting", "name_zh": "", "obsolete": 0, "parent_id": "142", "tab_name": ""}},
      {"PRIMARY_KEYS": {"categ_id": "324"}, "DATA": {"descr": "", "icon_id": "", "item_ref_mandatory": 0, "leaf": "1", "name_cs": "", "name_d": "Kundeninterne Vorlagen", "name_es": "", "name_fr": "", "name_i": "", "name_ja": "", "name_ko": "", "name_pl": "", "name_pt": "", "name_tr": "", "name_uk": "Customer Internal Templates", "name_zh": "", "obsolete": 0, "parent_id": "142", "tab_name": ""}},
      {"PRIMARY_KEYS": {"categ_id": "325"}, "DATA": {"descr": "", "icon_id": "", "item_ref_mandatory": 0, "leaf": "1", "name_cs": "", "name_d": "Kunde", "name_es": "", "name_fr": "", "name_i": "", "name_ja": "", "name_ko": "", "name_pl": "", "name_pt": "", "name_tr": "", "name_uk": "Customer", "name_zh": "", "obsolete": 0, "parent_id": "300", "tab_name": ""}},
      {"PRIMARY_KEYS": {"categ_id": "326"}, "DATA": {"descr": "", "icon_id": "", "item_ref_mandatory": 0, "leaf": "1", "name_cs": "", "name_d": "Lieferant", "name_es": "", "name_fr": "", "name_i": "", "name_ja": "", "name_ko": "", "name_pl": "", "name_pt": "", "name_tr": "", "name_uk": "Supplier", "name_zh": "", "obsolete": 0, "parent_id": "300", "tab_name": ""}},
      {"PRIMARY_KEYS": {"categ_id": "327"}, "DATA": {"descr": "", "icon_id": "", "item_ref_mandatory": 0, "leaf": "1", "name_cs": "", "name_d": "Sonstige", "name_es": "", "name_fr": "", "name_i": "", "name_ja": "", "name_ko": "", "name_pl": "", "name_pt": "", "name_tr": "", "name_uk": "Other", "name_zh": "", "obsolete": 0, "parent_id": "300", "tab_name": ""}},
      {"PRIMARY_KEYS": {"categ_id": "328"}, "DATA": {"descr": "", "icon_id": "", "item_ref_mandatory": 0, "leaf": "1", "name_cs": "", "name_d": "Intern", "name_es": "", "name_fr": "", "name_i": "", "name_ja": "", "name_ko": "", "name_pl": "", "name_pt": "", "name_tr": "", "name_uk": "Internal", "name_zh": "", "obsolete": 0, "parent_id": "300", "tab_name": ""}},
      {"PRIMARY_KEYS": {"categ_id": "331"}, "DATA": {"descr": "", "icon_id": "", "item_ref_mandatory": 0, "leaf": "1", "name_cs": "", "name_d": "Angebotsspezifikation", "name_es": "", "name_fr": "", "name_i": "", "name_ja": "", "name_ko": "", "name_pl": "", "name_pt": "", "name_tr": "", "name_uk": "Offer Specification", "name_zh": "", "obsolete": 0, "parent_id": "301", "tab_name": ""}},
      {"PRIMARY_KEYS": {"categ_id": "335"}, "DATA": {"descr": "", "icon_id": "", "item_ref_mandatory": 0, "leaf": "1", "name_cs": "", "name_d": "Garantienachweis", "name_es": "", "name_fr": "", "name_i": "", "name_ja": "", "name_ko": "", "name_pl": "", "name_pt": "", "name_tr": "", "name_uk": "Guarantee Certificate", "name_zh": "", "obsolete": 0, "parent_id": "147", "tab_name": ""}},
      {"PRIMARY_KEYS": {"categ_id": "336"}, "DATA": {"descr": "", "icon_id": "", "item_ref_mandatory": 0, "leaf": "1", "name_cs": "", "name_d": "Vertragsabweichungen", "name_es": "", "name_fr": "", "name_i": "", "name_ja": "", "name_ko": "", "name_pl": "", "name_pt": "", "name_tr": "", "name_uk": "Contract Deviations", "name_zh": "", "obsolete": 0, "parent_id": "147", "tab_name": ""}},
      {"PRIMARY_KEYS": {"categ_id": "337"}, "DATA": {"descr": "", "icon_id": "", "item_ref_mandatory": 0, "leaf": "1", "name_cs": "", "name_d": "Organigramm", "name_es": "", "name_fr": "", "name_i": "", "name_ja": "", "name_ko": "", "name_pl": "", "name_pt": "", "name_tr": "", "name_uk": "Organization Chart", "name_zh": "", "obsolete": 0, "parent_id": "303", "tab_name": ""}},
      {"PRIMARY_KEYS": {"categ_id": "338"}, "DATA": {"descr": "", "icon_id": "", "item_ref_mandatory": 0, "leaf": "1", "name_cs": "", "name_d": "Schulungsunterlagen", "name_es": "", "name_fr": "", "name_i": "", "name_ja": "", "name_ko": "", "name_pl": "", "name_pt": "", "name_tr": "", "name_uk": "Training Materials", "name_zh": "", "obsolete": 0, "parent_id": "303", "tab_name": ""}},
      {"PRIMARY_KEYS": {"categ_id": "339"}, "DATA": {"descr": "", "icon_id": "", "item_ref_mandatory": 0, "leaf": "1", "name_cs": "", "name_d": "Reiseunterlagen", "name_es": "", "name_fr": "", "name_i": "", "name_ja": "", "name_ko": "", "name_pl": "", "name_pt": "", "name_tr": "", "name_uk": "Travel Documents", "name_zh": "", "obsolete": 0, "parent_id": "303", "tab_name": ""}},
      {"PRIMARY_KEYS": {"categ_id": "343"}, "DATA": {"descr": "", "icon_id": "", "item_ref_mandatory": 0, "leaf": "1", "name_cs": "", "name_d": "Lieferpacklisten", "name_es": "", "name_fr": "", "name_i": "", "name_ja": "", "name_ko": "", "name_pl": "", "name_pt": "", "name_tr": "", "name_uk": "Delivery Packaging Lists", "name_zh": "", "obsolete": 0, "parent_id": "148", "tab_name": ""}},
      {"PRIMARY_KEYS": {"categ_id": "346"}, "DATA": {"descr": "", "icon_id": "", "item_ref_mandatory": 0, "leaf": "1", "name_cs": "", "name_d": "Checkliste", "name_es": "", "name_fr": "", "name_i": "", "name_ja": "", "name_ko": "", "name_pl": "", "name_pt": "", "name_tr": "", "name_uk": "Checklist", "name_zh": "", "obsolete": 0, "parent_id": "148", "tab_name": ""}},
      {"PRIMARY_KEYS": {"categ_id": "347"}, "DATA": {"descr": "", "icon_id": "", "item_ref_mandatory": 0, "leaf": "1", "name_cs": "", "name_d": "Kollidaten", "name_es": "", "name_fr": "", "name_i": "", "name_ja": "", "name_ko": "", "name_pl": "", "name_pt": "", "name_tr": "", "name_uk": "Packaging Data", "name_zh": "", "obsolete": 0, "parent_id": "148", "tab_name": ""}},
      {"PRIMARY_KEYS": {"categ_id": "348"}, "DATA": {"descr": "", "icon_id": "", "item_ref_mandatory": 0, "leaf": "1", "name_cs": "", "name_d": "Versanddokumente", "name_es": "", "name_fr": "", "name_i": "", "name_ja": "", "name_ko": "", "name_pl": "", "name_pt": "", "name_tr": "", "name_uk": "Shipping Documents", "name_zh": "", "obsolete": 0, "parent_id": "148", "tab_name": ""}},
      {"PRIMARY_KEYS": {"categ_id": "350"}, "DATA": {"descr": "", "icon_id": "", "item_ref_mandatory": 0, "leaf": "1", "name_cs": "", "name_d": "Feststellungsprotokoll", "name_es": "", "name_fr": "", "name_i": "", "name_ja": "", "name_ko": "", "name_pl": "", "name_pt": "", "name_tr": "", "name_uk": "Assessment Certificate", "name_zh": "", "obsolete": 0, "parent_id": "148", "tab_name": ""}},
      {"PRIMARY_KEYS": {"categ_id": "352"}, "DATA": {"descr": "", "icon_id": "", "item_ref_mandatory": 0, "leaf": "1", "name_cs": "", "name_d": "Montagebericht", "name_es": "", "name_fr": "", "name_i": "", "name_ja": "", "name_ko": "", "name_pl": "", "name_pt": "", "name_tr": "", "name_uk": "Assembly Report", "name_zh": "", "obsolete": 0, "parent_id": "148", "tab_name": ""}},
      {"PRIMARY_KEYS": {"categ_id": "353"}, "DATA": {"descr": "", "icon_id": "", "item_ref_mandatory": 0, "leaf": "1", "name_cs": "", "name_d": "Inbetriebnahmeprotokoll", "name_es": "", "name_fr": "", "name_i": "", "name_ja": "", "name_ko": "", "name_pl": "", "name_pt": "", "name_tr": "", "name_uk": "Commissioning Certificate", "name_zh": "", "obsolete": 0, "parent_id": "148", "tab_name": ""}},
      {"PRIMARY_KEYS": {"categ_id": "354"}, "DATA": {"descr": "", "icon_id": "", "item_ref_mandatory": 0, "leaf": "1", "name_cs": "", "name_d": "Frachtbrief", "name_es": "", "name_fr": "", "name_i": "", "name_ja": "", "name_ko": "", "name_pl": "", "name_pt": "", "name_tr": "", "name_uk": "Consignment Note", "name_zh": "", "obsolete": 0, "parent_id": "148", "tab_name": ""}},
      {"PRIMARY_KEYS": {"categ_id": "355"}, "DATA": {"descr": "", "icon_id": "", "item_ref_mandatory": 0, "leaf": "1", "name_cs": "", "name_d": "Zollformular", "name_es": "", "name_fr": "", "name_i": "", "name_ja": "", "name_ko": "", "name_pl": "", "name_pt": "", "name_tr": "", "name_uk": "Customs Form", "name_zh": "", "obsolete": 0, "parent_id": "148", "tab_name": ""}},
      {"PRIMARY_KEYS": {"categ_id": "356"}, "DATA": {"descr": "", "icon_id": "", "item_ref_mandatory": 0, "leaf": "1", "name_cs": "", "name_d": "Genehmigungsangtrag", "name_es": "", "name_fr": "", "name_i": "", "name_ja": "", "name_ko": "", "name_pl": "", "name_pt": "", "name_tr": "", "name_uk": "Approval Request", "name_zh": "", "obsolete": 0, "parent_id": "305", "tab_name": ""}},
      {"PRIMARY_KEYS": {"categ_id": "357"}, "DATA": {"descr": "", "icon_id": "", "item_ref_mandatory": 0, "leaf": "1", "name_cs": "", "name_d": "Genehmigung", "name_es": "", "name_fr": "", "name_i": "", "name_ja": "", "name_ko": "", "name_pl": "", "name_pt": "", "name_tr": "", "name_uk": "Approval", "name_zh": "", "obsolete": 0, "parent_id": "305", "tab_name": ""}},
      {"PRIMARY_KEYS": {"categ_id": "358"}, "DATA": {"descr": "", "icon_id": "", "item_ref_mandatory": 0, "leaf": "1", "name_cs": "", "name_d": "Lizenz", "name_es": "", "name_fr": "", "name_i": "", "name_ja": "", "name_ko": "", "name_pl": "", "name_pt": "", "name_tr": "", "name_uk": "License", "name_zh": "", "obsolete": 0, "parent_id": "305", "tab_name": ""}},
      {"PRIMARY_KEYS": {"categ_id": "359"}, "DATA": {"descr": "", "icon_id": "", "item_ref_mandatory": 0, "leaf": "1", "name_cs": "", "name_d": "Versicherungspolice", "name_es": "", "name_fr": "", "name_i": "", "name_ja": "", "name_ko": "", "name_pl": "", "name_pt": "", "name_tr": "", "name_uk": "Insurance Policy", "name_zh": "", "obsolete": 0, "parent_id": "305", "tab_name": ""}},
      {"PRIMARY_KEYS": {"categ_id": "360"}, "DATA": {"descr": "", "icon_id": "", "item_ref_mandatory": 0, "leaf": "1", "name_cs": "", "name_d": "Schadensmeldung", "name_es": "", "name_fr": "", "name_i": "", "name_ja": "", "name_ko": "", "name_pl": "", "name_pt": "", "name_tr": "", "name_uk": "Damage Report", "name_zh": "", "obsolete": 0, "parent_id": "305", "tab_name": ""}},
      {"PRIMARY_KEYS": {"categ_id": "363"}, "DATA": {"descr": "", "icon_id": "", "item_ref_mandatory": 0, "leaf": "1", "name_cs": "", "name_d": "Gewichts- und Preisliste", "name_es": "", "name_fr": "", "name_i": "", "name_ja": "", "name_ko": "", "name_pl": "", "name_pt": "", "name_tr": "", "name_uk": "Weight & Price List", "name_zh": "", "obsolete": 0, "parent_id": "307", "tab_name": ""}},
      {"PRIMARY_KEYS": {"categ_id": "364"}, "DATA": {"descr": "", "icon_id": "", "item_ref_mandatory": 0, "leaf": "1", "name_cs": "", "name_d": "Ausr\u00fcstungsliste", "name_es": "", "name_fr": "", "name_i": "", "name_ja": "", "name_ko": "", "name_pl": "", "name_pt": "", "name_tr": "", "name_uk": "Equipment List", "name_zh": "", "obsolete": 0, "parent_id": "307", "tab_name": ""}},
      {"PRIMARY_KEYS": {"categ_id": "365"}, "DATA": {"descr": "", "icon_id": "", "item_ref_mandatory": 0, "leaf": "1", "name_cs": "", "name_d": "Verbrauchsliste", "name_es": "", "name_fr": "", "name_i": "", "name_ja": "", "name_ko": "", "name_pl": "", "name_pt": "", "name_tr": "", "name_uk": "Consumption List", "name_zh": "", "obsolete": 0, "parent_id": "307", "tab_name": ""}},
      {"PRIMARY_KEYS": {"categ_id": "366"}, "DATA": {"descr": "", "icon_id": "", "item_ref_mandatory": 0, "leaf": "1", "name_cs": "", "name_d": "Farbgebung", "name_es": "", "name_fr": "", "name_i": "", "name_ja": "", "name_ko": "", "name_pl": "", "name_pt": "", "name_tr": "", "name_uk": "Coloring", "name_zh": "", "obsolete": 0, "parent_id": "307", "tab_name": ""}},
      {"PRIMARY_KEYS": {"categ_id": "367"}, "DATA": {"descr": "", "icon_id": "", "item_ref_mandatory": 0, "leaf": "1", "name_cs": "", "name_d": "Liste der Anlagenkennzeichnung", "name_es": "", "name_fr": "", "name_i": "", "name_ja": "", "name_ko": "", "name_pl": "", "name_pt": "", "name_tr": "", "name_uk": "List of Plant Identification", "name_zh": "", "obsolete": 0, "parent_id": "307", "tab_name": ""}},
      {"PRIMARY_KEYS": {"categ_id": "368"}, "DATA": {"descr": "", "icon_id": "", "item_ref_mandatory": 0, "leaf": "1", "name_cs": "", "name_d": "Liste der Elektro- und Automatisierungstechnik", "name_es": "", "name_fr": "", "name_i": "", "name_ja": "", "name_ko": "", "name_pl": "", "name_pt": "", "name_tr": "", "name_uk": "List of Electrical Engineering & Automation", "name_zh": "", "obsolete": 0, "parent_id": "307", "tab_name": ""}},
      {"PRIMARY_KEYS": {"categ_id": "369"}, "DATA": {"descr": "", "icon_id": "", "item_ref_mandatory": 0, "leaf": "1", "name_cs": "", "name_d": "Terminplan", "name_es": "", "name_fr": "", "name_i": "", "name_ja": "", "name_ko": "", "name_pl": "", "name_pt": "", "name_tr": "", "name_uk": "Time Schedule", "name_zh": "", "obsolete": 0, "parent_id": "145", "tab_name": ""}},
      {"PRIMARY_KEYS": {"categ_id": "371"}, "DATA": {"descr": "", "icon_id": "", "item_ref_mandatory": 0, "leaf": "1", "name_cs": "", "name_d": "Ressourcenplan", "name_es": "", "name_fr": "", "name_i": "", "name_ja": "", "name_ko": "", "name_pl": "", "name_pt": "", "name_tr": "", "name_uk": "Resource Schedule", "name_zh": "", "obsolete": 0, "parent_id": "145", "tab_name": ""}},
      {"PRIMARY_KEYS": {"categ_id": "374"}, "DATA": {"descr": "", "icon_id": "", "item_ref_mandatory": 0, "leaf": "1", "name_cs": "", "name_d": "Montagezeichnung", "name_es": "", "name_fr": "", "name_i": "", "name_ja": "", "name_ko": "", "name_pl": "", "name_pt": "", "name_tr": "", "name_uk": "Assembly Drawing", "name_zh": "", "obsolete": 0, "parent_id": "311", "tab_name": ""}},
      {"PRIMARY_KEYS": {"categ_id": "375"}, "DATA": {"descr": "", "icon_id": "", "item_ref_mandatory": 0, "leaf": "1", "name_cs": "", "name_d": "Verfahrenstechnische Auslegung", "name_es": "", "name_fr": "", "name_i": "", "name_ja": "", "name_ko": "", "name_pl": "", "name_pt": "", "name_tr": "", "name_uk": "Process Design", "name_zh": "", "obsolete": 0, "parent_id": "309", "tab_name": ""}},
      {"PRIMARY_KEYS": {"categ_id": "376"}, "DATA": {"descr": "", "icon_id": "", "item_ref_mandatory": 0, "leaf": "1", "name_cs": "", "name_d": "Mechanische Auslegung", "name_es": "", "name_fr": "", "name_i": "", "name_ja": "", "name_ko": "", "name_pl": "", "name_pt": "", "name_tr": "", "name_uk": "Mechanical Design", "name_zh": "", "obsolete": 0, "parent_id": "309", "tab_name": ""}},
      {"PRIMARY_KEYS": {"categ_id": "377"}, "DATA": {"descr": "", "icon_id": "", "item_ref_mandatory": 0, "leaf": "1", "name_cs": "", "name_d": "Elektrotechnische Auslegung", "name_es": "", "name_fr": "", "name_i": "", "name_ja": "", "name_ko": "", "name_pl": "", "name_pt": "", "name_tr": "", "name_uk": "Electrotechnical Design", "name_zh": "", "obsolete": 0, "parent_id": "309", "tab_name": ""}},
      {"PRIMARY_KEYS": {"categ_id": "378"}, "DATA": {"descr": "", "icon_id": "", "item_ref_mandatory": 0, "leaf": "1", "name_cs": "", "name_d": "Flussdiagramm", "name_es": "", "name_fr": "", "name_i": "", "name_ja": "", "name_ko": "", "name_pl": "", "name_pt": "", "name_tr": "", "name_uk": "Flow Diagram", "name_zh": "", "obsolete": 0, "parent_id": "310", "tab_name": ""}},
      {"PRIMARY_KEYS": {"categ_id": "379"}, "DATA": {"descr": "", "icon_id": "", "item_ref_mandatory": 0, "leaf": "1", "name_cs": "", "name_d": "Funktionsbeschreibung", "name_es": "", "name_fr": "", "name_i": "", "name_ja": "", "name_ko": "", "name_pl": "", "name_pt": "", "name_tr": "", "name_uk": "Functional Description", "name_zh": "", "obsolete": 0, "parent_id": "310", "tab_name": ""}},
      {"PRIMARY_KEYS": {"categ_id": "380"}, "DATA": {"descr": "", "icon_id": "", "item_ref_mandatory": 0, "leaf": "1", "name_cs": "", "name_d": "Funktionsplan", "name_es": "", "name_fr": "", "name_i": "", "name_ja": "", "name_ko": "", "name_pl": "", "name_pt": "", "name_tr": "", "name_uk": "Functional Diagram", "name_zh": "", "obsolete": 0, "parent_id": "310", "tab_name": ""}},
      {"PRIMARY_KEYS": {"categ_id": "381"}, "DATA": {"descr": "", "icon_id": "", "item_ref_mandatory": 0, "leaf": "1", "name_cs": "", "name_d": "Inbetriebsetzungskonzeption", "name_es": "", "name_fr": "", "name_i": "", "name_ja": "", "name_ko": "", "name_pl": "", "name_pt": "", "name_tr": "", "name_uk": "Commissioning Conception", "name_zh": "", "obsolete": 0, "parent_id": "310", "tab_name": ""}},
      {"PRIMARY_KEYS": {"categ_id": "382"}, "DATA": {"descr": "", "icon_id": "", "item_ref_mandatory": 0, "leaf": "1", "name_cs": "", "name_d": "Planungszeichnung", "name_es": "", "name_fr": "", "name_i": "", "name_ja": "", "name_ko": "", "name_pl": "", "name_pt": "", "name_tr": "", "name_uk": "Planning Drawing", "name_zh": "", "obsolete": 0, "parent_id": "311", "tab_name": ""}},
      {"PRIMARY_KEYS": {"categ_id": "383"}, "DATA": {"descr": "", "icon_id": "", "item_ref_mandatory": 0, "leaf": "1", "name_cs": "", "name_d": "Fertigungszeichnung", "name_es": "", "name_fr": "", "name_i": "", "name_ja": "", "name_ko": "", "name_pl": "", "name_pt": "", "name_tr": "", "name_uk": "Production Drawing", "name_zh": "", "obsolete": 0, "parent_id": "311", "tab_name": ""}},
      {"PRIMARY_KEYS": {"categ_id": "384"}, "DATA": {"descr": "", "icon_id": "", "item_ref_mandatory": 0, "leaf": "1", "name_cs": "", "name_d": "Kundenzeichnung", "name_es": "", "name_fr": "", "name_i": "", "name_ja": "", "name_ko": "", "name_pl": "", "name_pt": "", "name_tr": "", "name_uk": "Customer Drawing", "name_zh": "", "obsolete": 0, "parent_id": "311", "tab_name": ""}},
      {"PRIMARY_KEYS": {"categ_id": "385"}, "DATA": {"descr": "", "icon_id": "", "item_ref_mandatory": 0, "leaf": "1", "name_cs": "", "name_d": "Anordnungszeichnung / Mechanik", "name_es": "", "name_fr": "", "name_i": "", "name_ja": "", "name_ko": "", "name_pl": "", "name_pt": "", "name_tr": "", "name_uk": "Arrangement Drawing", "name_zh": "", "obsolete": 0, "parent_id": "311", "tab_name": ""}},
      {"PRIMARY_KEYS": {"categ_id": "386"}, "DATA": {"descr": "", "icon_id": "", "item_ref_mandatory": 0, "leaf": "1", "name_cs": "", "name_d": "Blechabwicklung", "name_es": "", "name_fr": "", "name_i": "", "name_ja": "", "name_ko": "", "name_pl": "", "name_pt": "", "name_tr": "", "name_uk": "Sheet Metal", "name_zh": "", "obsolete": 0, "parent_id": "311", "tab_name": ""}},
      {"PRIMARY_KEYS": {"categ_id": "387"}, "DATA": {"descr": "", "icon_id": "", "item_ref_mandatory": 0, "leaf": "1", "name_cs": "", "name_d": "Explosionszeichnung", "name_es": "", "name_fr": "", "name_i": "", "name_ja": "", "name_ko": "", "name_pl": "", "name_pt": "", "name_tr": "", "name_uk": "Exploded View Drawing", "name_zh": "", "obsolete": 0, "parent_id": "311", "tab_name": ""}},
      {"PRIMARY_KEYS": {"categ_id": "388"}, "DATA": {"descr": "", "icon_id": "", "item_ref_mandatory": 0, "leaf": "1", "name_cs": "", "name_d": "Pr\u00fcfzeichnung", "name_es": "", "name_fr": "", "name_i": "", "name_ja": "", "name_ko": "", "name_pl": "", "name_pt": "", "name_tr": "", "name_uk": "Review Drawing", "name_zh": "", "obsolete": 0, "parent_id": "311", "tab_name": ""}},
      {"PRIMARY_KEYS": {"categ_id": "389"}, "DATA": {"descr": "", "icon_id": "", "item_ref_mandatory": 0, "leaf": "1", "name_cs": "", "name_d": "Transportzeichnung", "name_es": "", "name_fr": "", "name_i": "", "name_ja": "", "name_ko": "", "name_pl": "", "name_pt": "", "name_tr": "", "name_uk": "Transport Drawing", "name_zh": "", "obsolete": 0, "parent_id": "311", "tab_name": ""}},
      {"PRIMARY_KEYS": {"categ_id": "390"}, "DATA": {"descr": "", "icon_id": "", "item_ref_mandatory": 0, "leaf": "1", "name_cs": "", "name_d": "Hydraulikplan", "name_es": "", "name_fr": "", "name_i": "", "name_ja": "", "name_ko": "", "name_pl": "", "name_pt": "", "name_tr": "", "name_uk": "Hydraulic Diagram", "name_zh": "", "obsolete": 0, "parent_id": "311", "tab_name": ""}},
      {"PRIMARY_KEYS": {"categ_id": "391"}, "DATA": {"descr": "", "icon_id": "", "item_ref_mandatory": 0, "leaf": "1", "name_cs": "", "name_d": "Pneumatikplan", "name_es": "", "name_fr": "", "name_i": "", "name_ja": "", "name_ko": "", "name_pl": "", "name_pt": "", "name_tr": "", "name_uk": "Pneumatic Diagram", "name_zh": "", "obsolete": 0, "parent_id": "311", "tab_name": ""}},
      {"PRIMARY_KEYS": {"categ_id": "392"}, "DATA": {"descr": "", "icon_id": "", "item_ref_mandatory": 0, "leaf": "1", "name_cs": "", "name_d": "Anordnungszeichnung / Elektronik", "name_es": "", "name_fr": "", "name_i": "", "name_ja": "", "name_ko": "", "name_pl": "", "name_pt": "", "name_tr": "", "name_uk": "Layout Drawing", "name_zh": "", "obsolete": 0, "parent_id": "312", "tab_name": ""}},
      {"PRIMARY_KEYS": {"categ_id": "393"}, "DATA": {"descr": "", "icon_id": "", "item_ref_mandatory": 0, "leaf": "1", "name_cs": "", "name_d": "Stromlaufplan", "name_es": "", "name_fr": "", "name_i": "", "name_ja": "", "name_ko": "", "name_pl": "", "name_pt": "", "name_tr": "", "name_uk": "Circuit Diagram", "name_zh": "", "obsolete": 0, "parent_id": "312", "tab_name": ""}},
      {"PRIMARY_KEYS": {"categ_id": "394"}, "DATA": {"descr": "", "icon_id": "", "item_ref_mandatory": 0, "leaf": "1", "name_cs": "", "name_d": "Verdrahtungsplan", "name_es": "", "name_fr": "", "name_i": "", "name_ja": "", "name_ko": "", "name_pl": "", "name_pt": "", "name_tr": "", "name_uk": "Wiring Diagram", "name_zh": "", "obsolete": 0, "parent_id": "312", "tab_name": ""}},
      {"PRIMARY_KEYS": {"categ_id": "395"}, "DATA": {"descr": "", "icon_id": "", "item_ref_mandatory": 0, "leaf": "1", "name_cs": "", "name_d": "Anschlussplan", "name_es": "", "name_fr": "", "name_i": "", "name_ja": "", "name_ko": "", "name_pl": "", "name_pt": "", "name_tr": "", "name_uk": "Connection Diagram", "name_zh": "", "obsolete": 0, "parent_id": "312", "tab_name": ""}},
      {"PRIMARY_KEYS": {"categ_id": "396"}, "DATA": {"descr": "", "icon_id": "", "item_ref_mandatory": 0, "leaf": "1", "name_cs": "", "name_d": "Klemmplan", "name_es": "", "name_fr": "", "name_i": "", "name_ja": "", "name_ko": "", "name_pl": "", "name_pt": "", "name_tr": "", "name_uk": "Terminal Diagram", "name_zh": "", "obsolete": 0, "parent_id": "312", "tab_name": ""}},
      {"PRIMARY_KEYS": {"categ_id": "397"}, "DATA": {"descr": "", "icon_id": "", "item_ref_mandatory": 0, "leaf": "1", "name_cs": "", "name_d": "Platinen: Layout/Schaltplan", "name_es": "", "name_fr": "", "name_i": "", "name_ja": "", "name_ko": "", "name_pl": "", "name_pt": "", "name_tr": "", "name_uk": "PCB Layout / Circuit Diagram", "name_zh": "", "obsolete": 0, "parent_id": "312", "tab_name": ""}},
      {"PRIMARY_KEYS": {"categ_id": "398"}, "DATA": {"descr": "", "icon_id": "", "item_ref_mandatory": 0, "leaf": "1", "name_cs": "", "name_d": "Platinen: Fertigungsdaten", "name_es": "", "name_fr": "", "name_i": "", "name_ja": "", "name_ko": "", "name_pl": "", "name_pt": "", "name_tr": "", "name_uk": "PCB Manufacturing Data", "name_zh": "", "obsolete": 0, "parent_id": "312", "tab_name": ""}},
      {"PRIMARY_KEYS": {"categ_id": "399"}, "DATA": {"descr": "", "icon_id": "", "item_ref_mandatory": 0, "leaf": "1", "name_cs": "", "name_d": "Konformit\u00e4tserkl\u00e4rung", "name_es": "", "name_fr": "", "name_i": "", "name_ja": "", "name_ko": "", "name_pl": "", "name_pt": "", "name_tr": "", "name_uk": "Conformity Declaration", "name_zh": "", "obsolete": 0, "parent_id": "146", "tab_name": ""}},
      {"PRIMARY_KEYS": {"categ_id": "400"}, "DATA": {"descr": "", "icon_id": "", "item_ref_mandatory": 0, "leaf": "1", "name_cs": "", "name_d": "Materialzertifikat", "name_es": "", "name_fr": "", "name_i": "", "name_ja": "", "name_ko": "", "name_pl": "", "name_pt": "", "name_tr": "", "name_uk": "Material Certificate", "name_zh": "", "obsolete": 0, "parent_id": "146", "tab_name": ""}},
      {"PRIMARY_KEYS": {"categ_id": "401"}, "DATA": {"descr": "", "icon_id": "", "item_ref_mandatory": 0, "leaf": "1", "name_cs": "", "name_d": "Pr\u00fcfbescheinigung", "name_es": "", "name_fr": "", "name_i": "", "name_ja": "", "name_ko": "", "name_pl": "", "name_pt": "", "name_tr": "", "name_uk": "Review Certification", "name_zh": "", "obsolete": 0, "parent_id": "146", "tab_name": ""}},
      {"PRIMARY_KEYS": {"categ_id": "402"}, "DATA": {"descr": "", "icon_id": "", "item_ref_mandatory": 0, "leaf": "1", "name_cs": "", "name_d": "Testbericht", "name_es": "", "name_fr": "", "name_i": "", "name_ja": "", "name_ko": "", "name_pl": "", "name_pt": "", "name_tr": "", "name_uk": "Test Report", "name_zh": "", "obsolete": 0, "parent_id": "146", "tab_name": ""}},
      {"PRIMARY_KEYS": {"categ_id": "403"}, "DATA": {"descr": "", "icon_id": "", "item_ref_mandatory": 0, "leaf": "1", "name_cs": "", "name_d": "Qualit\u00e4tszertifikat", "name_es": "", "name_fr": "", "name_i": "", "name_ja": "", "name_ko": "", "name_pl": "", "name_pt": "", "name_tr": "", "name_uk": "Quality Certificate", "name_zh": "", "obsolete": 0, "parent_id": "146", "tab_name": ""}},
      {"PRIMARY_KEYS": {"categ_id": "404"}, "DATA": {"descr": "", "icon_id": "", "item_ref_mandatory": 0, "leaf": "1", "name_cs": "", "name_d": "Gefahren- / Risikoanalyse", "name_es": "", "name_fr": "", "name_i": "", "name_ja": "", "name_ko": "", "name_pl": "", "name_pt": "", "name_tr": "", "name_uk": "Danger / Risk Analysis", "name_zh": "", "obsolete": 0, "parent_id": "146", "tab_name": ""}},
      {"PRIMARY_KEYS": {"categ_id": "405"}, "DATA": {"descr": "", "icon_id": "", "item_ref_mandatory": 0, "leaf": "1", "name_cs": "", "name_d": "Sicherheitsdatenblatt", "name_es": "", "name_fr": "", "name_i": "", "name_ja": "", "name_ko": "", "name_pl": "", "name_pt": "", "name_tr": "", "name_uk": "Safety Data Sheet", "name_zh": "", "obsolete": 0, "parent_id": "146", "tab_name": ""}},
      {"PRIMARY_KEYS": {"categ_id": "406"}, "DATA": {"descr": "", "icon_id": "", "item_ref_mandatory": 0, "leaf": "1", "name_cs": "", "name_d": "Messprotokoll", "name_es": "", "name_fr": "", "name_i": "", "name_ja": "", "name_ko": "", "name_pl": "", "name_pt": "", "name_tr": "", "name_uk": "Measurement Protocol", "name_zh": "", "obsolete": 0, "parent_id": "146", "tab_name": ""}},
      {"PRIMARY_KEYS": {"categ_id": "407"}, "DATA": {"descr": "", "icon_id": "", "item_ref_mandatory": 0, "leaf": "1", "name_cs": "", "name_d": "Sicherheitsstudie", "name_es": "", "name_fr": "", "name_i": "", "name_ja": "", "name_ko": "", "name_pl": "", "name_pt": "", "name_tr": "", "name_uk": "Safety Study", "name_zh": "", "obsolete": 0, "parent_id": "146", "tab_name": ""}},
      {"PRIMARY_KEYS": {"categ_id": "408"}, "DATA": {"descr": "", "icon_id": "", "item_ref_mandatory": 0, "leaf": "1", "name_cs": "", "name_d": "QM-Verfahrensanweisung", "name_es": "", "name_fr": "", "name_i": "", "name_ja": "", "name_ko": "", "name_pl": "", "name_pt": "", "name_tr": "", "name_uk": "QM Process Instruction", "name_zh": "", "obsolete": 0, "parent_id": "146", "tab_name": ""}},
      {"PRIMARY_KEYS": {"categ_id": "409"}, "DATA": {"descr": "", "icon_id": "", "item_ref_mandatory": 0, "leaf": "1", "name_cs": "", "name_d": "M\u00e4ngelr\u00fcge", "name_es": "", "name_fr": "", "name_i": "", "name_ja": "", "name_ko": "", "name_pl": "", "name_pt": "", "name_tr": "", "name_uk": "Notice of Defects", "name_zh": "", "obsolete": 0, "parent_id": "146", "tab_name": ""}},
      {"PRIMARY_KEYS": {"categ_id": "414"}, "DATA": {"descr": "", "icon_id": "", "item_ref_mandatory": 0, "leaf": "1", "name_cs": "", "name_d": "Technisches Datenblatt", "name_es": "", "name_fr": "", "name_i": "", "name_ja": "", "name_ko": "", "name_pl": "", "name_pt": "", "name_tr": "", "name_uk": "Technical Datasheet", "name_zh": "", "obsolete": 0, "parent_id": "316", "tab_name": ""}},
      {"PRIMARY_KEYS": {"categ_id": "417"}, "DATA": {"descr": "", "icon_id": "", "item_ref_mandatory": 0, "leaf": "1", "name_cs": "", "name_d": "Ersatzteilliste", "name_es": "", "name_fr": "", "name_i": "", "name_ja": "", "name_ko": "", "name_pl": "", "name_pt": "", "name_tr": "", "name_uk": "Spare Parts List", "name_zh": "", "obsolete": 0, "parent_id": "316", "tab_name": ""}},
      {"PRIMARY_KEYS": {"categ_id": "418"}, "DATA": {"descr": "", "icon_id": "", "item_ref_mandatory": 0, "leaf": "1", "name_cs": "", "name_d": "Schmierstellenliste", "name_es": "", "name_fr": "", "name_i": "", "name_ja": "", "name_ko": "", "name_pl": "", "name_pt": "", "name_tr": "", "name_uk": "Lubrication Points List", "name_zh": "", "obsolete": 0, "parent_id": "316", "tab_name": ""}},
      {"PRIMARY_KEYS": {"categ_id": "419"}, "DATA": {"descr": "", "icon_id": "", "item_ref_mandatory": 0, "leaf": "1", "name_cs": "", "name_d": "Maschinenkarte", "name_es": "", "name_fr": "", "name_i": "", "name_ja": "", "name_ko": "", "name_pl": "", "name_pt": "", "name_tr": "", "name_uk": "Machine Card", "name_zh": "", "obsolete": 0, "parent_id": "316", "tab_name": ""}},
      {"PRIMARY_KEYS": {"categ_id": "421"}, "DATA": {"descr": "", "icon_id": "", "item_ref_mandatory": 0, "leaf": "1", "name_cs": "", "name_d": "Verordnung", "name_es": "", "name_fr": "", "name_i": "", "name_ja": "", "name_ko": "", "name_pl": "", "name_pt": "", "name_tr": "", "name_uk": "Decree", "name_zh": "", "obsolete": 0, "parent_id": "143", "tab_name": ""}},
      {"PRIMARY_KEYS": {"categ_id": "423"}, "DATA": {"descr": "", "icon_id": "", "item_ref_mandatory": 0, "leaf": "1", "name_cs": "", "name_d": "Vorschrift", "name_es": "", "name_fr": "", "name_i": "", "name_ja": "", "name_ko": "", "name_pl": "", "name_pt": "", "name_tr": "", "name_uk": "Regulation", "name_zh": "", "obsolete": 0, "parent_id": "143", "tab_name": ""}},
      {"PRIMARY_KEYS": {"categ_id": "425"}, "DATA": {"descr": "", "icon_id": "", "item_ref_mandatory": 0, "leaf": "1", "name_cs": "", "name_d": "Richtlinie", "name_es": "", "name_fr": "", "name_i": "", "name_ja": "", "name_ko": "", "name_pl": "", "name_pt": "", "name_tr": "", "name_uk": "Guideline", "name_zh": "", "obsolete": 0, "parent_id": "143", "tab_name": ""}},
      {"PRIMARY_KEYS": {"categ_id": "428"}, "DATA": {"descr": "", "icon_id": "", "item_ref_mandatory": 0, "leaf": "1", "name_cs": "", "name_d": "Literatur", "name_es": "", "name_fr": "", "name_i": "", "name_ja": "", "name_ko": "", "name_pl": "", "name_pt": "", "name_tr": "", "name_uk": "Literature", "name_zh": "", "obsolete": 0, "parent_id": "149", "tab_name": ""}},
      {"PRIMARY_KEYS": {"categ_id": "429"}, "DATA": {"descr": "", "icon_id": "", "item_ref_mandatory": 0, "leaf": "1", "name_cs": "", "name_d": "Prospekt", "name_es": "", "name_fr": "", "name_i": "", "name_ja": "", "name_ko": "", "name_pl": "", "name_pt": "", "name_tr": "", "name_uk": "Leaflet", "name_zh": "", "obsolete": 0, "parent_id": "149", "tab_name": ""}},
      {"PRIMARY_KEYS": {"categ_id": "430"}, "DATA": {"descr": "", "icon_id": "", "item_ref_mandatory": 0, "leaf": "1", "name_cs": "", "name_d": "Katalog", "name_es": "", "name_fr": "", "name_i": "", "name_ja": "", "name_ko": "", "name_pl": "", "name_pt": "", "name_tr": "", "name_uk": "Catalog", "name_zh": "", "obsolete": 0, "parent_id": "149", "tab_name": ""}}
    ],
    "CONTENT_DOMAIN": "",
    "UPDATE_POLICY": "NEVER UPDATED"
  }
}